[{"OBJECT_NAME":"STARLINK-31253","OBJECT_ID":"2024-017E","EPOCH":"2026-03-09T15:43:31.614528","MEAN_MOTION":15.30239664,"ECCENTRICITY":9.871e-5,"INCLINATION":53.16,"RA_OF_ASC_NODE":204.287,"ARG_OF_PERICENTER":73.766,"MEAN_ANOMALY":286.3449,"EPHEMERIS_TYPE":0,"CLASSIFICATION_TYPE":"U","NORAD_CAT_ID":58830,"ELEMENT_SET_NO":999,"REV_AT_EPOCH":12005,"BSTAR":-4.3020246e-5,"MEAN_MOTION_DOT":-1.635e-5,"MEAN_MOTION_DDOT":0},{"OBJECT_NAME":"CONTECSAT-1","OBJECT_ID":"2024-043V","EPOCH":"2026-03-09T22:02:35.535840","MEAN_MOTION":15.34615346,"ECCENTRICITY":0.00100896,"INCLINATION":97.5476,"RA_OF_ASC_NODE":207.3735,"ARG_OF_PERICENTER":223.9905,"MEAN_ANOMALY":136.0535,"EPHEMERIS_TYPE":0,"CLASSIFICATION_TYPE":"U","NORAD_CAT_ID":59117,"ELEMENT_SET_NO":999,"REV_AT_EPOCH":11201,"BSTAR":0.0004369392,"MEAN_MOTION_DOT":0.00014607,"MEAN_MOTION_DDOT":0}]
